[{"OBJECT_NAME":"IRIDIUM 160","OBJECT_ID":"2018-061A","EPOCH":"2026-03-09T22:03:46.499616","MEAN_MOTION":14.34217171,"ECCENTRICITY":0.00022327,"INCLINATION":86.3914,"RA_OF_ASC_NODE":98.3199,"ARG_OF_PERICENTER":91.5582,"MEAN_ANOMALY":268.587,"EPHEMERIS_TYPE":0,"CLASSIFICATION_TYPE":"U","NORAD_CAT_ID":43569,"ELEMENT_SET_NO":999,"REV_AT_EPOCH":39914,"BSTAR":-1.4041758e-5,"MEAN_MOTION_DOT":-2.0e-7,"MEAN_MOTION_DDOT":0},{"OBJECT_NAME":"COSMOS 2150","OBJECT_ID":"1991-041A","EPOCH":"2026-03-09T21:22:27.398496","MEAN_MOTION":14.32619295,"ECCENTRICITY":0.00160185,"INCLINATION":74.0357,"RA_OF_ASC_NODE":293.6901,"ARG_OF_PERICENTER":108.0273,"MEAN_ANOMALY":252.2625,"EPHEMERIS_TYPE":0,"CLASSIFICATION_TYPE":"U","NORAD_CAT_ID":21418,"ELEMENT_SET_NO":999,"REV_AT_EPOCH":81476,"BSTAR":6.2548549e-5,"MEAN_MOTION_DOT":1.44e-6,"MEAN_MOTION_DDOT":0}]
